GLOBALSTAR M057 [-]     
1 25943U 99058A   24023.08535420 -.00000114  00000+0 -19173-3 0  9993
2 25943  52.0018 358.6447 0002854  36.6668 323.4377 12.24778646104306
GLOBALSTAR M059 [-]     
1 25944U 99058B   24023.47966108 -.00000086  00000+0  44191-5 0  9995
2 25944  52.0006 148.7724 0001270 102.0674 332.8426 11.99960431101487
GLOBALSTAR M056 [-]     
1 25945U 99058C   24022.70428366 -.00000044  00000+0  50206-3 0  9996
2 25945  51.9945 165.9683 0000887 159.7846 303.0041 12.04775225100974
GLOBALSTAR M031 [-]     
1 25946U 99058D   24023.31000536 -.00000028  00000+0  63830-3 0  9999
2 25946  51.9968  87.2086 0001618 199.1694 235.0906 12.16001559102392
GLOBALSTAR M039 [-]     
1 25961U 99062A   24023.28529283 -.00000066  00000+0  21201-3 0  9990
2 25961  51.9866  24.7610 0002600 297.5702  62.4900 12.62279644115696
GLOBALSTAR M034 [-]     
1 25962U 99062B   24022.83408125  .00000002  00000+0  13107-2 0  9996
2 25962  51.9857 260.5830 0014199 151.6710 288.5586 11.79423584 78056
GLOBALSTAR M029 [-]     
1 25963U 99062C   24023.20483880 -.00000060  00000+0  32090-3 0  9998
2 25963  51.9822  37.9897 0002771 191.0103 248.5857 11.99872885107789
GLOBALSTAR M061 [-]     
1 25964U 99062D   24023.29179694 -.00000020  00000+0  98824-3 0  9996
2 25964  51.9799  76.6558 0006314  89.3246 348.5374 11.76758043 61037
